*******************************************************************************
Ephemeris / WWW_USER Mon Mar 10 07:31:15 2025 Pasadena, USA      / Horizons    
*******************************************************************************
Target body name: (2017 UX51)                     {source: JPL#22}
Center body name: Earth (399)                     {source: DE441}
Center-site name: Mauna Kea
*******************************************************************************
Start time      : A.D. 2018-Oct-04 04:17:00.0000 UT      
Stop  time      : A.D. 2018-Oct-04 16:04:00.0000 UT      
Step-size       : 1 minutes
*******************************************************************************
Target pole/equ : undefined
Target radii    : undefined                                                    
Center geodetic : 204.5278, 19.8260847, 4.21024   {E-lon(deg),Lat(deg),Alt(km)}
Center cylindric: 204.5278, 6006.35451, 2151.0229 {E-lon(deg),Dxy(km),Dz(km)}
Center pole/equ : ITRF93                          {East-longitude positive}
Center radii    : 6378.137, 6378.137, 6356.752 km {Equator_a, b, pole_c}       
Target primary  : Sun
Vis. interferer : MOON (R_eq= 1737.400) km        {source: DE441}
Rel. light bend : Sun                             {source: DE441}
Rel. lght bnd GM: 1.3271E+11 km^3/s^2                                          
Small-body perts: Yes                             {source: SB441-N16}
Atmos refraction: NO (AIRLESS)
RA format       : HMS
Time format     : CAL 
Calendar mode   : Mixed Julian/Gregorian
RTS-only print  : NO       
EOP file        : eop.250307.p250603                                           
EOP coverage    : DATA-BASED 1962-JAN-20 TO 2025-MAR-07. PREDICTS-> 2025-JUN-02
Units conversion: 1 au= 149597870.700 km, c= 299792.458 km/s, 1 day= 86400.0 s 
Table cut-offs 1: Elevation (-90.0deg=NO ),Airmass (>38.000=NO), Daylight (YES)
Table cut-offs 2: Solar elongation (  0.0,180.0=NO ),Local Hour Angle( 0.0=NO )
Table cut-offs 3: RA/DEC angular rate (     0.0=NO )                           
*******************************************************************************
Initial IAU76/J2000 heliocentric ecliptic osculating elements (au, days, deg.):
  EPOCH=  2458433.5 ! 2018-Nov-11.00 (TDB)         Residual RMS= .12444        
   EC= .7474905367293002   QR= 7.612253692784782   TP= 2459819.8104231078      
   OM= 217.7952286585891   W=  255.0338939179157   IN= 90.52400691057457       
  Equivalent ICRF heliocentric cartesian coordinates (au, au/d):
   X= 8.209785034050050E+00  Y= 6.297741083246843E+00  Z= 1.446459094674425E+00
  VX=-3.080259200599625E-03 VY=-2.498125597102637E-05 VZ=-6.110805734701701E-03
Asteroid physical parameters (km, seconds, rotational period in hours):        
   GM= n.a.                RAD= n.a.               ROTPER= n.a.                
   H= 11.                  G= .150                 B-V= n.a.                   
                           ALBEDO= n.a.            STYP= n.a.                  
*******************************************************************************
 Date__(UT)__HR:MN     R.A._________(ICRF)_________DEC
******************************************************
$$SOE
 2018-Oct-04 08:23     02 39 21.388989 +09 30 40.36378
 2018-Oct-04 08:24     02 39 21.376709 +09 30 40.20105
 2018-Oct-04 08:25     02 39 21.364428 +09 30 40.03831
 2018-Oct-04 08:26     02 39 21.352146 +09 30 39.87558
 2018-Oct-04 08:27     02 39 21.339863 +09 30 39.71284
 2018-Oct-04 08:28     02 39 21.327579 +09 30 39.55010
 2018-Oct-04 08:29     02 39 21.315294 +09 30 39.38736
 2018-Oct-04 08:30     02 39 21.303008 +09 30 39.22462
 2018-Oct-04 08:31     02 39 21.290721 +09 30 39.06187
 2018-Oct-04 08:32     02 39 21.278433 +09 30 38.89913
 2018-Oct-04 08:33     02 39 21.266144 +09 30 38.73638
 2018-Oct-04 08:34     02 39 21.253854 +09 30 38.57362
 2018-Oct-04 08:35     02 39 21.241563 +09 30 38.41087
 2018-Oct-04 08:36     02 39 21.229271 +09 30 38.24811
 2018-Oct-04 08:37     02 39 21.216978 +09 30 38.08536
 2018-Oct-04 08:38     02 39 21.204684 +09 30 37.92260
 2018-Oct-04 08:39     02 39 21.192389 +09 30 37.75983
 2018-Oct-04 08:40     02 39 21.180092 +09 30 37.59707
 2018-Oct-04 08:41     02 39 21.167795 +09 30 37.43430
 2018-Oct-04 08:42     02 39 21.155497 +09 30 37.27153
 2018-Oct-04 08:43     02 39 21.143198 +09 30 37.10876
 2018-Oct-04 08:44     02 39 21.130898 +09 30 36.94599
 2018-Oct-04 08:45     02 39 21.118597 +09 30 36.78321
 2018-Oct-04 08:46     02 39 21.106295 +09 30 36.62044
 2018-Oct-04 08:47     02 39 21.093992 +09 30 36.45766
 2018-Oct-04 08:48     02 39 21.081688 +09 30 36.29487
 2018-Oct-04 08:49     02 39 21.069383 +09 30 36.13209
 2018-Oct-04 08:50     02 39 21.057077 +09 30 35.96930
 2018-Oct-04 08:51     02 39 21.044770 +09 30 35.80651
 2018-Oct-04 08:52     02 39 21.032462 +09 30 35.64372
 2018-Oct-04 08:53     02 39 21.020153 +09 30 35.48093
 2018-Oct-04 08:54     02 39 21.007843 +09 30 35.31813
 2018-Oct-04 08:55     02 39 20.995532 +09 30 35.15533
 2018-Oct-04 08:56     02 39 20.983221 +09 30 34.99253
 2018-Oct-04 08:57     02 39 20.970908 +09 30 34.82973
 2018-Oct-04 08:58     02 39 20.958594 +09 30 34.66692
 2018-Oct-04 08:59     02 39 20.946280 +09 30 34.50412
 2018-Oct-04 09:00     02 39 20.933964 +09 30 34.34131
 2018-Oct-04 09:01     02 39 20.921648 +09 30 34.17849
 2018-Oct-04 09:02     02 39 20.909330 +09 30 34.01568
 2018-Oct-04 09:03     02 39 20.897012 +09 30 33.85286
 2018-Oct-04 09:04     02 39 20.884693 +09 30 33.69004
 2018-Oct-04 09:05     02 39 20.872373 +09 30 33.52722
 2018-Oct-04 09:06     02 39 20.860051 +09 30 33.36440
 2018-Oct-04 09:07     02 39 20.847729 +09 30 33.20157
 2018-Oct-04 09:08     02 39 20.835407 +09 30 33.03874
 2018-Oct-04 09:09     02 39 20.823083 +09 30 32.87591
 2018-Oct-04 09:10     02 39 20.810758 +09 30 32.71307
 2018-Oct-04 09:11     02 39 20.798432 +09 30 32.55024
 2018-Oct-04 09:12     02 39 20.786106 +09 30 32.38740
 2018-Oct-04 09:13     02 39 20.773778 +09 30 32.22456
 2018-Oct-04 09:14     02 39 20.761450 +09 30 32.06171
 2018-Oct-04 09:15     02 39 20.749121 +09 30 31.89887
 2018-Oct-04 09:16     02 39 20.736791 +09 30 31.73602
 2018-Oct-04 09:17     02 39 20.724460 +09 30 31.57317
 2018-Oct-04 09:18     02 39 20.712128 +09 30 31.41031
 2018-Oct-04 09:19     02 39 20.699795 +09 30 31.24746
 2018-Oct-04 09:20     02 39 20.687462 +09 30 31.08460
 2018-Oct-04 09:21     02 39 20.675127 +09 30 30.92174
 2018-Oct-04 09:22     02 39 20.662792 +09 30 30.75887
 2018-Oct-04 09:23     02 39 20.650456 +09 30 30.59601
 2018-Oct-04 09:24     02 39 20.638119 +09 30 30.43314
 2018-Oct-04 09:25     02 39 20.625781 +09 30 30.27026
 2018-Oct-04 09:26     02 39 20.613442 +09 30 30.10739
 2018-Oct-04 09:27     02 39 20.601102 +09 30 29.94451
 2018-Oct-04 09:28     02 39 20.588762 +09 30 29.78163
 2018-Oct-04 09:29     02 39 20.576421 +09 30 29.61875
 2018-Oct-04 09:30     02 39 20.564079 +09 30 29.45587
 2018-Oct-04 09:31     02 39 20.551736 +09 30 29.29298
 2018-Oct-04 09:32     02 39 20.539392 +09 30 29.13009
 2018-Oct-04 09:33     02 39 20.527047 +09 30 28.96720
 2018-Oct-04 09:34     02 39 20.514702 +09 30 28.80430
 2018-Oct-04 09:35     02 39 20.502356 +09 30 28.64140
 2018-Oct-04 09:36     02 39 20.490009 +09 30 28.47850
 2018-Oct-04 09:37     02 39 20.477661 +09 30 28.31560
 2018-Oct-04 09:38     02 39 20.465312 +09 30 28.15270
 2018-Oct-04 09:39     02 39 20.452963 +09 30 27.98979
 2018-Oct-04 09:40     02 39 20.440613 +09 30 27.82688
 2018-Oct-04 09:41     02 39 20.428261 +09 30 27.66396
 2018-Oct-04 09:42     02 39 20.415910 +09 30 27.50105
 2018-Oct-04 09:43     02 39 20.403557 +09 30 27.33813
 2018-Oct-04 09:44     02 39 20.391204 +09 30 27.17520
 2018-Oct-04 09:45     02 39 20.378849 +09 30 27.01228
 2018-Oct-04 09:46     02 39 20.366494 +09 30 26.84935
 2018-Oct-04 09:47     02 39 20.354139 +09 30 26.68642
 2018-Oct-04 09:48     02 39 20.341782 +09 30 26.52349
 2018-Oct-04 09:49     02 39 20.329425 +09 30 26.36055
 2018-Oct-04 09:50     02 39 20.317067 +09 30 26.19762
 2018-Oct-04 09:51     02 39 20.304708 +09 30 26.03468
 2018-Oct-04 09:52     02 39 20.292349 +09 30 25.87173
 2018-Oct-04 09:53     02 39 20.279989 +09 30 25.70879
 2018-Oct-04 09:54     02 39 20.267628 +09 30 25.54584
 2018-Oct-04 09:55     02 39 20.255266 +09 30 25.38288
 2018-Oct-04 09:56     02 39 20.242903 +09 30 25.21993
 2018-Oct-04 09:57     02 39 20.230540 +09 30 25.05697
 2018-Oct-04 09:58     02 39 20.218176 +09 30 24.89401
 2018-Oct-04 09:59     02 39 20.205812 +09 30 24.73105
 2018-Oct-04 10:00     02 39 20.193446 +09 30 24.56808
 2018-Oct-04 10:01     02 39 20.181080 +09 30 24.40511
 2018-Oct-04 10:02     02 39 20.168713 +09 30 24.24214
 2018-Oct-04 10:03     02 39 20.156346 +09 30 24.07917
 2018-Oct-04 10:04     02 39 20.143978 +09 30 23.91619
 2018-Oct-04 10:05     02 39 20.131609 +09 30 23.75321
 2018-Oct-04 10:06     02 39 20.119239 +09 30 23.59023
 2018-Oct-04 10:07     02 39 20.106869 +09 30 23.42724
 2018-Oct-04 10:08     02 39 20.094498 +09 30 23.26425
 2018-Oct-04 10:09     02 39 20.082126 +09 30 23.10126
 2018-Oct-04 10:10     02 39 20.069754 +09 30 22.93826
 2018-Oct-04 10:11     02 39 20.057381 +09 30 22.77527
 2018-Oct-04 10:12     02 39 20.045007 +09 30 22.61227
 2018-Oct-04 10:13     02 39 20.032633 +09 30 22.44926
 2018-Oct-04 10:14     02 39 20.020258 +09 30 22.28626
 2018-Oct-04 10:15     02 39 20.007882 +09 30 22.12325
 2018-Oct-04 10:16     02 39 19.995506 +09 30 21.96024
 2018-Oct-04 10:17     02 39 19.983129 +09 30 21.79722
 2018-Oct-04 10:18     02 39 19.970751 +09 30 21.63420
 2018-Oct-04 10:19     02 39 19.958373 +09 30 21.47118
 2018-Oct-04 10:20     02 39 19.945994 +09 30 21.30816
 2018-Oct-04 10:21     02 39 19.933615 +09 30 21.14513
 2018-Oct-04 10:22     02 39 19.921235 +09 30 20.98210
 2018-Oct-04 10:23     02 39 19.908854 +09 30 20.81907
 2018-Oct-04 10:24     02 39 19.896473 +09 30 20.65604
 2018-Oct-04 10:25     02 39 19.884091 +09 30 20.49300
